*******************************************************************************
 Revised: Sep 29, 2017             Hegemone / (Jupiter)                     539
 Description: Apr 15, 2008   http://ssd.jpl.nasa.gov/?sat_elem 
  
 Irregular retrograde moon discovered in 2003 (IAUC 8088) by S. S. Sheppard 
 (University of Hawaii).  Initial designation S/2003J8. Named in March 2005
 (IAUC 8502).
*******************************************************************************
 
 
*******************************************************************************
Ephemeris / WWW_USER Sun Nov 12 11:25:41 2017 Pasadena, USA      / Horizons    
*******************************************************************************
Target body name: Hegemone (539)                  {source: jup341}
Center body name: Solar System Barycenter (0)     {source: DE431mx}
Center-site name: BODY CENTER
*******************************************************************************
Start time      : A.D. 2017-Jul-10 00:00:00.0000 TDB
Stop  time      : A.D. 2020-Aug-13 00:00:00.0000 TDB
Step-size       : 1440 minutes
*******************************************************************************
Center geodetic : 0.00000000,0.00000000,0.0000000 {E-lon(deg),Lat(deg),Alt(km)}
Center cylindric: 0.00000000,0.00000000,0.0000000 {E-lon(deg),Dxy(km),Dz(km)}
Center radii    : (undefined)                                                  
Output units    : KM-S                                                         
Output type     : GEOMETRIC cartesian states
Output format   : 3 (position, velocity, LT, range, range-rate)
Reference frame : ICRF/J2000.0                                                 
Coordinate systm: Ecliptic and Mean Equinox of Reference Epoch                 
*******************************************************************************
            JDTDB,            Calendar Date (TDB),                      X,                      Y,                      Z,                     VX,                     VY,                     VZ,                     LT,                     RG,                     RR,
**************************************************************************************************************************************************************************************************************************************************************************
$$SOE
2458924.500000000, A.D. 2020-Mar-16 00:00:00.0000,  1.639244801283961E+08, -7.874380468808075E+08,  8.704302945526302E+06,  1.085184326512199E+01,  3.399623212041132E+00, -8.907036333982578E-01,  2.683078276189882E+03,  8.043666314253677E+08, -1.126181538889704E+00,
2458925.500000000, A.D. 2020-Mar-17 00:00:00.0000,  1.648618632845702E+08, -7.871430478924751E+08,  8.627163887837708E+06,  1.084684759508964E+01,  3.429064655706271E+00, -8.949213289202442E-01,  2.682751400532458E+03,  8.042686365685680E+08, -1.142222250656859E+00,
2458926.500000000, A.D. 2020-Mar-18 00:00:00.0000,  1.657988165560736E+08, -7.868455031971658E+08,  8.549660779976606E+06,  1.084189231568147E+01,  3.458551624744993E+00, -8.991306879135293E-01,  2.682419898234779E+03,  8.041692546799140E+08, -1.158288675294797E+00,
2458927.500000000, A.D. 2020-Mar-19 00:00:00.0000,  1.667353434546124E+08, -7.865454088588269E+08,  8.471794350771308E+06,  1.083697793529400E+01,  3.488084180351644E+00, -9.033315120006474E-01,  2.682083761958073E+03,  8.040684835592977E+08, -1.174380314395187E+00,
2458928.500000000, A.D. 2020-Mar-20 00:00:00.0000,  1.676714475358553E+08, -7.862427609361367E+08,  8.393565346242487E+06,  1.083210496368215E+01,  3.517662384116379E+00, -9.075236020703594E-01,  2.681742984507884E+03,  8.039663210498743E+08, -1.190496665600754E+00,
2458929.500000000, A.D. 2020-Mar-21 00:00:00.0000,  1.686071323998552E+08, -7.859375554823740E+08,  8.314974529632151E+06,  1.082727392033819E+01,  3.547286298618799E+00, -9.117067579044928E-01,  2.681397558835100E+03,  8.038627650383742E+08, -1.206637221392861E+00,
2458930.500000000, A.D. 2020-Mar-22 00:00:00.0000,  1.695424016921433E+08, -7.856297885456897E+08,  8.236022681744039E+06,  1.082248533686363E+01,  3.576955978066058E+00, -9.158807721860002E-01,  2.681047478038811E+03,  8.037578134559560E+08, -1.222801459289040E+00,
2458931.500000000, A.D. 2020-Mar-23 00:00:00.0000,  1.704772591040254E+08, -7.853194561701227E+08,  8.156710601665795E+06,  1.081773973779709E+01,  3.606671464812433E+00, -9.200454301486267E-01,  2.680692735371057E+03,  8.036514642796326E+08, -1.238988842429458E+00,
2458932.500000000, A.D. 2020-Mar-24 00:00:00.0000,  1.714117083719458E+08, -7.850065543958725E+08,  8.077039106952429E+06,  1.081303765256053E+01,  3.636432809905132E+00, -9.242005209724856E-01,  2.680333324238487E+03,  8.035437155327669E+08, -1.255198837267971E+00,
2458933.500000000, A.D. 2020-Mar-25 00:00:00.0000,  1.723457532798966E+08, -7.846910792582647E+08,  7.997009033299923E+06,  1.080837962979937E+01,  3.666240062329663E+00, -9.283458300220446E-01,  2.679969238201902E+03,  8.034345652849358E+08, -1.271430899818114E+00,
2458934.500000000, A.D. 2020-Mar-26 00:00:00.0000,  1.732793976567270E+08, -7.843730267902337E+08,  7.916621235824466E+06,  1.080376619955448E+01,  3.696093265052812E+00, -9.324811397401740E-01,  2.679600470983716E+03,  8.033240116541657E+08, -1.287684479875555E+00,
2458935.500000000, A.D. 2020-Mar-27 00:00:00.0000,  1.742126453793236E+08, -7.840523930186460E+08,  7.835876587343156E+06,  1.079919791105022E+01,  3.725992445995229E+00, -9.366062215769605E-01,  2.679227016459420E+03,  8.032120528043759E+08, -1.303959003975920E+00,
2458936.500000000, A.D. 2020-Mar-28 00:00:00.0000,  1.751455003717300E+08, -7.837291739695624E+08,  7.754775981333792E+06,  1.079467531683811E+01,  3.755937664409173E+00, -9.407208634719511E-01,  2.678848868675464E+03,  8.030986869507364E+08, -1.320253924301120E+00,
2458937.500000000, A.D. 2020-Mar-29 00:00:00.0000,  1.760779666063975E+08, -7.834033656633139E+08,  7.673320329347670E+06,  1.079019898356471E+01,  3.785928956607032E+00, -9.448248382947826E-01,  2.678466021835311E+03,  8.029839123554894E+08, -1.336568662944620E+00,
2458938.500000000, A.D. 2020-Mar-30 00:00:00.0000,  1.770100481046255E+08, -7.830749641183329E+08,  7.591510563309729E+06,  1.078576947469210E+01,  3.815966344138647E+00, -9.489179094883319E-01,  2.678078470313601E+03,  8.028677273321944E+08, -1.352902623692899E+00,
2458939.500000000, A.D. 2020-Mar-31 00:00:00.0000,  1.779417489365441E+08, -7.827439653504894E+08,  7.509347635240495E+06,  1.078138735924647E+01,  3.846049861637500E+00, -9.529998465812884E-01,  2.677686208655273E+03,  8.027501302454649E+08, -1.369255217405419E+00,
2458940.500000000, A.D. 2020-Apr-01 00:00:00.0000,  1.788730732218946E+08, -7.824103653729719E+08,  7.426832517316878E+06,  1.077705321574010E+01,  3.876179534019623E+00, -9.570704120392273E-01,  2.677289231577061E+03,  8.026311195114183E+08, -1.385625838707427E+00,
2458941.500000000, A.D. 2020-Apr-02 00:00:00.0000,  1.798040251305300E+08, -7.820741601972864E+08,  7.343966202566326E+06,  1.077276762451538E+01,  3.906355377607353E+00, -9.611293620866171E-01,  2.676887533972475E+03,  8.025106935991665E+08, -1.402013868744948E+00,
2458942.500000000, A.D. 2020-Apr-03 00:00:00.0000,  1.807346088824506E+08, -7.817353458334076E+08,  7.260749705066323E+06,  1.076853116692139E+01,  3.936577412752156E+00, -9.651764538789750E-01,  2.676481110913653E+03,  8.023888510313746E+08, -1.418418687716920E+00,
2458943.500000000, A.D. 2020-Apr-04 00:00:00.0000,  1.816648287481935E+08, -7.813939182893887E+08,  7.177184059851527E+06,  1.076434443263067E+01,  3.966845661987288E+00, -9.692114442153134E-01,  2.676069957651740E+03,  8.022655903843708E+08, -1.434839671368215E+00,
2458944.500000000, A.D. 2020-Apr-05 00:00:00.0000,  1.825946890497275E+08, -7.810498735715963E+08,  7.093270323189914E+06,  1.076020802204214E+01,  3.997160140829610E+00, -9.732340842218719E-01,  2.675654069619693E+03,  8.021409102889909E+08, -1.451276181354402E+00,
2458945.500000000, A.D. 2020-Apr-06 00:00:00.0000,  1.835241941611627E+08, -7.807032076853806E+08,  7.009009573103487E+06,  1.075612254068620E+01,  4.027520858368289E+00, -9.772441198582074E-01,  2.675233442436400E+03,  8.020148094318099E+08, -1.467727567019668E+00,
2458946.500000000, A.D. 2020-Apr-07 00:00:00.0000,  1.844533485090449E+08, -7.803539166353340E+08,  6.924402909639537E+06,  1.075208859744180E+01,  4.057927823592074E+00, -9.812412956245681E-01,  2.674808071909151E+03,  8.018872865558850E+08, -1.484193171952788E+00,
2458947.500000000, A.D. 2020-Apr-08 00:00:00.0000,  1.853821565729139E+08, -7.800019964253775E+08,  6.839451455044210E+06,  1.074810681129183E+01,  4.088381041267931E+00, -9.852253521166269E-01,  2.674377954035761E+03,  8.017583404613917E+08, -1.500672328346504E+00,
2458948.500000000, A.D. 2020-Apr-09 00:00:00.0000,  1.863106228862350E+08, -7.796474430595670E+08,  6.754156354351282E+06,  1.074417780938444E+01,  4.118880503125968E+00, -9.891960210961849E-01,  2.673943085009357E+03,  8.016279700070579E+08, -1.517164348749038E+00,
2458949.500000000, A.D. 2020-Apr-10 00:00:00.0000,  1.872387520363643E+08, -7.792902525429127E+08,  6.668518775954723E+06,  1.074030220983202E+01,  4.149426199124933E+00, -9.931530321953912E-01,  2.673503461222467E+03,  8.014961741113908E+08, -1.533668541047394E+00,
2458950.500000000, A.D. 2020-Apr-11 00:00:00.0000,  1.881665486641197E+08, -7.789304208808192E+08,  6.582539911414623E+06,  1.073648064206683E+01,  4.180018127800435E+00, -9.970961178623579E-01,  2.673059079266311E+03,  8.013629517524639E+08, -1.550184213825836E+00,
2458951.500000000, A.D. 2020-Apr-12 00:00:00.0000,  1.890940174666817E+08, -7.785679440795200E+08,  6.496220975926936E+06,  1.073271375730096E+01,  4.210656275769100E+00, -1.001025001984728E+00,  2.672609935935955E+03,  8.012283019694626E+08, -1.566710653746076E+00,
